{
"type": "FeatureCollection",
"crs": { "type": "name", "properties": { "name": "urn:ogc:def:crs:OGC:1.3:CRS84" } },
"features": [
{ "type": "Feature", "properties": { "Name": "Choa Chu Kang", "Description": "<center><table><tr><th colspan='2' align='center'>Choa Chu Kang</th></tr><tr><th>NAME</th><td>Choa Chu Kang</td></tr></table></center>" }, "geometry": { "type": "Point", "coordinates": [ 103.744537697810003, 1.38475541089131 ] } },
{ "type": "Feature", "properties": { "Name": "South View", "Description": "<center><table><tr><th colspan='2' align='center'>South View</th></tr><tr><th>NAME</th><td>South View</td></tr></table></center>" }, "geometry": { "type": "Point", "coordinates": [ 103.745291799824003, 1.38029828742399 ] } },
{ "type": "Feature", "properties": { "Name": "Keat Hong", "Description": "<center><table><tr><th colspan='2' align='center'>Keat Hong</th></tr><tr><th>NAME</th><td>Keat Hong</td></tr></table></center>" }, "geometry": { "type": "Point", "coordinates": [ 103.749055668924996, 1.3786032506373 ] } },
{ "type": "Feature", "properties": { "Name": "Teck Whye", "Description": "<center><table><tr><th colspan='2' align='center'>Teck Whye</th></tr><tr><th>NAME</th><td>Teck Whye</td></tr></table></center>" }, "geometry": { "type": "Point", "coordinates": [ 103.753712232336994, 1.37668467920808 ] } },
{ "type": "Feature", "properties": { "Name": "Phoenix", "Description": "<center><table><tr><th colspan='2' align='center'>Phoenix</th></tr><tr><th>NAME</th><td>Phoenix</td></tr></table></center>" }, "geometry": { "type": "Point", "coordinates": [ 103.757995558345996, 1.37861545104083 ] } },
{ "type": "Feature", "properties": { "Name": "Bukit Panjang", "Description": "<center><table><tr><th colspan='2' align='center'>Bukit Panjang</th></tr><tr><th>NAME</th><td>Bukit Panjang</td></tr></table></center>" }, "geometry": { "type": "Point", "coordinates": [ 103.763102931112002, 1.37792694616982 ] } },
{ "type": "Feature", "properties": { "Name": "Petir", "Description": "<center><table><tr><th colspan='2' align='center'>Petir</th></tr><tr><th>NAME</th><td>Petir</td></tr></table></center>" }, "geometry": { "type": "Point", "coordinates": [ 103.766645782496994, 1.37777204259082 ] } },
{ "type": "Feature", "properties": { "Name": "Pending", "Description": "<center><table><tr><th colspan='2' align='center'>Pending</th></tr><tr><th>NAME</th><td>Pending</td></tr></table></center>" }, "geometry": { "type": "Point", "coordinates": [ 103.771261175570999, 1.37613574334988 ] } },
{ "type": "Feature", "properties": { "Name": "Bangkit", "Description": "<center><table><tr><th colspan='2' align='center'>Bangkit</th></tr><tr><th>NAME</th><td>Bangkit</td></tr></table></center>" }, "geometry": { "type": "Point", "coordinates": [ 103.772647370452006, 1.38002223010088 ] } },
{ "type": "Feature", "properties": { "Name": "Fajar", "Description": "<center><table><tr><th colspan='2' align='center'>Fajar</th></tr><tr><th>NAME</th><td>Fajar</td></tr></table></center>" }, "geometry": { "type": "Point", "coordinates": [ 103.770887223017994, 1.38457317668026 ] } },
{ "type": "Feature", "properties": { "Name": "Segar", "Description": "<center><table><tr><th colspan='2' align='center'>Segar</th></tr><tr><th>NAME</th><td>Segar</td></tr></table></center>" }, "geometry": { "type": "Point", "coordinates": [ 103.769599685249005, 1.38778508663361 ] } },
{ "type": "Feature", "properties": { "Name": "Jelapang", "Description": "<center><table><tr><th colspan='2' align='center'>Jelapang</th></tr><tr><th>NAME</th><td>Jelapang</td></tr></table></center>" }, "geometry": { "type": "Point", "coordinates": [ 103.764534086460003, 1.38673926997961 ] } },
{ "type": "Feature", "properties": { "Name": "Senja", "Description": "<center><table><tr><th colspan='2' align='center'>Senja</th></tr><tr><th>NAME</th><td>Senja</td></tr></table></center>" }, "geometry": { "type": "Point", "coordinates": [ 103.762344254720006, 1.38272547134453 ] } },
{ "type": "Feature", "properties": { "Name": "Dhoby Ghaut", "Description": "<center><table><tr><th colspan='2' align='center'>Dhoby Ghaut</th></tr><tr><th>NAME</th><td>Dhoby Ghaut</td></tr></table></center>" }, "geometry": { "type": "Point", "coordinates": [ 103.846292506959998, 1.29891164362677 ] } },
{ "type": "Feature", "properties": { "Name": "Bras Basah", "Description": "<center><table><tr><th colspan='2' align='center'>Bras Basah</th></tr><tr><th>NAME</th><td>Bras Basah</td></tr></table></center>" }, "geometry": { "type": "Point", "coordinates": [ 103.850667371637002, 1.29686168649656 ] } },
{ "type": "Feature", "properties": { "Name": "Esplanade", "Description": "<center><table><tr><th colspan='2' align='center'>Esplanade</th></tr><tr><th>NAME</th><td>Esplanade</td></tr></table></center>" }, "geometry": { "type": "Point", "coordinates": [ 103.855081226245005, 1.2936577245386 ] } },
{ "type": "Feature", "properties": { "Name": "Promenade", "Description": "<center><table><tr><th colspan='2' align='center'>Promenade</th></tr><tr><th>NAME</th><td>Promenade</td></tr></table></center>" }, "geometry": { "type": "Point", "coordinates": [ 103.860350000188006, 1.29399798636232 ] } },
{ "type": "Feature", "properties": { "Name": "Nicoll Highway", "Description": "<center><table><tr><th colspan='2' align='center'>Nicoll Highway</th></tr><tr><th>NAME</th><td>Nicoll Highway</td></tr></table></center>" }, "geometry": { "type": "Point", "coordinates": [ 103.863636965720005, 1.29976684675139 ] } },
{ "type": "Feature", "properties": { "Name": "Stadium", "Description": "<center><table><tr><th colspan='2' align='center'>Stadium</th></tr><tr><th>NAME</th><td>Stadium</td></tr></table></center>" }, "geometry": { "type": "Point", "coordinates": [ 103.875337711089003, 1.3028124684707 ] } },
{ "type": "Feature", "properties": { "Name": "Mountbatten", "Description": "<center><table><tr><th colspan='2' align='center'>Mountbatten</th></tr><tr><th>NAME</th><td>Mountbatten</td></tr></table></center>" }, "geometry": { "type": "Point", "coordinates": [ 103.882528081052001, 1.30620190525331 ] } },
{ "type": "Feature", "properties": { "Name": "Dakota", "Description": "<center><table><tr><th colspan='2' align='center'>Dakota</th></tr><tr><th>NAME</th><td>Dakota</td></tr></table></center>" }, "geometry": { "type": "Point", "coordinates": [ 103.889064718377, 1.30854798388121 ] } },
{ "type": "Feature", "properties": { "Name": "Paya Lebar", "Description": "<center><table><tr><th colspan='2' align='center'>Paya Lebar</th></tr><tr><th>NAME</th><td>Paya Lebar</td></tr></table></center>" }, "geometry": { "type": "Point", "coordinates": [ 103.892260753884003, 1.3172473854035 ] } },
{ "type": "Feature", "properties": { "Name": "MacPherson", "Description": "<center><table><tr><th colspan='2' align='center'>MacPherson</th></tr><tr><th>NAME</th><td>MacPherson</td></tr></table></center>" }, "geometry": { "type": "Point", "coordinates": [ 103.890391305725004, 1.32607760171665 ] } },
{ "type": "Feature", "properties": { "Name": "Tai Seng", "Description": "<center><table><tr><th colspan='2' align='center'>Tai Seng</th></tr><tr><th>NAME</th><td>Tai Seng</td></tr></table></center>" }, "geometry": { "type": "Point", "coordinates": [ 103.888389300190994, 1.33514150139202 ] } },
{ "type": "Feature", "properties": { "Name": "Bartley", "Description": "<center><table><tr><th colspan='2' align='center'>Bartley</th></tr><tr><th>NAME</th><td>Bartley</td></tr></table></center>" }, "geometry": { "type": "Point", "coordinates": [ 103.880177899184005, 1.34250117805245 ] } },
{ "type": "Feature", "properties": { "Name": "Serangoon", "Description": "<center><table><tr><th colspan='2' align='center'>Serangoon</th></tr><tr><th>NAME</th><td>Serangoon</td></tr></table></center>" }, "geometry": { "type": "Point", "coordinates": [ 103.872771660430999, 1.35063361526525 ] } },
{ "type": "Feature", "properties": { "Name": "Lorong Chuan", "Description": "<center><table><tr><th colspan='2' align='center'>Lorong Chuan</th></tr><tr><th>NAME</th><td>Lorong Chuan</td></tr></table></center>" }, "geometry": { "type": "Point", "coordinates": [ 103.864151938651005, 1.35161217074555 ] } },
{ "type": "Feature", "properties": { "Name": "Bishan", "Description": "<center><table><tr><th colspan='2' align='center'>Bishan</th></tr><tr><th>NAME</th><td>Bishan</td></tr></table></center>" }, "geometry": { "type": "Point", "coordinates": [ 103.849140265320003, 1.35131580146658 ] } },
{ "type": "Feature", "properties": { "Name": "Marymount", "Description": "<center><table><tr><th colspan='2' align='center'>Marymount</th></tr><tr><th>NAME</th><td>Marymount</td></tr></table></center>" }, "geometry": { "type": "Point", "coordinates": [ 103.839423132332001, 1.348707263451 ] } },
{ "type": "Feature", "properties": { "Name": "Caldecott", "Description": "<center><table><tr><th colspan='2' align='center'>Caldecott</th></tr><tr><th>NAME</th><td>Caldecott</td></tr></table></center>" }, "geometry": { "type": "Point", "coordinates": [ 103.839529820338001, 1.33767450815619 ] } },
{ "type": "Feature", "properties": { "Name": "Bukit Brown", "Description": "<center><table><tr><th colspan='2' align='center'>Bukit Brown</th></tr><tr><th>NAME</th><td>Bukit Brown</td></tr></table></center>" }, "geometry": { "type": "Point", "coordinates": [ 103.830689549848998, 1.33372888295973 ] } },
{ "type": "Feature", "properties": { "Name": "Botanic Gardens", "Description": "<center><table><tr><th colspan='2' align='center'>Botanic Gardens</th></tr><tr><th>NAME</th><td>Botanic Gardens</td></tr></table></center>" }, "geometry": { "type": "Point", "coordinates": [ 103.814984510626999, 1.32211373558877 ] } },
{ "type": "Feature", "properties": { "Name": "Farrer Road", "Description": "<center><table><tr><th colspan='2' align='center'>Farrer Road</th></tr><tr><th>NAME</th><td>Farrer Road</td></tr></table></center>" }, "geometry": { "type": "Point", "coordinates": [ 103.807379214161003, 1.31743915158967 ] } },
{ "type": "Feature", "properties": { "Name": "Holland Village", "Description": "<center><table><tr><th colspan='2' align='center'>Holland Village</th></tr><tr><th>NAME</th><td>Holland Village</td></tr></table></center>" }, "geometry": { "type": "Point", "coordinates": [ 103.796399122406996, 1.31224029631595 ] } },
{ "type": "Feature", "properties": { "Name": "Buona Vista", "Description": "<center><table><tr><th colspan='2' align='center'>Buona Vista</th></tr><tr><th>NAME</th><td>Buona Vista</td></tr></table></center>" }, "geometry": { "type": "Point", "coordinates": [ 103.790709404436001, 1.30663450405 ] } },
{ "type": "Feature", "properties": { "Name": "one-north", "Description": "<center><table><tr><th colspan='2' align='center'>one-north</th></tr><tr><th>NAME</th><td>one-north</td></tr></table></center>" }, "geometry": { "type": "Point", "coordinates": [ 103.787457505250003, 1.29975987493555 ] } },
{ "type": "Feature", "properties": { "Name": "Kent Ridge", "Description": "<center><table><tr><th colspan='2' align='center'>Kent Ridge</th></tr><tr><th>NAME</th><td>Kent Ridge</td></tr></table></center>" }, "geometry": { "type": "Point", "coordinates": [ 103.784572738172997, 1.29353349887123 ] } },
{ "type": "Feature", "properties": { "Name": "Haw Par Villa", "Description": "<center><table><tr><th colspan='2' align='center'>Haw Par Villa</th></tr><tr><th>NAME</th><td>Haw Par Villa</td></tr></table></center>" }, "geometry": { "type": "Point", "coordinates": [ 103.781752725063996, 1.28257135772488 ] } },
{ "type": "Feature", "properties": { "Name": "Pasir Panjang", "Description": "<center><table><tr><th colspan='2' align='center'>Pasir Panjang</th></tr><tr><th>NAME</th><td>Pasir Panjang</td></tr></table></center>" }, "geometry": { "type": "Point", "coordinates": [ 103.791350313288007, 1.27621352233766 ] } },
{ "type": "Feature", "properties": { "Name": "Labrador Park", "Description": "<center><table><tr><th colspan='2' align='center'>Labrador Park</th></tr><tr><th>NAME</th><td>Labrador Park</td></tr></table></center>" }, "geometry": { "type": "Point", "coordinates": [ 103.802631578765997, 1.27225417749656 ] } },
{ "type": "Feature", "properties": { "Name": "Telok Blangah", "Description": "<center><table><tr><th colspan='2' align='center'>Telok Blangah</th></tr><tr><th>NAME</th><td>Telok Blangah</td></tr></table></center>" }, "geometry": { "type": "Point", "coordinates": [ 103.809761611219002, 1.27070647717762 ] } },
{ "type": "Feature", "properties": { "Name": "HarbourFront", "Description": "<center><table><tr><th colspan='2' align='center'>HarbourFront</th></tr><tr><th>NAME</th><td>HarbourFront</td></tr></table></center>" }, "geometry": { "type": "Point", "coordinates": [ 103.821530157094998, 1.26538938374901 ] } },
{ "type": "Feature", "properties": { "Name": "Keppel", "Description": "<center><table><tr><th colspan='2' align='center'>Keppel</th></tr><tr><th>NAME</th><td>Keppel</td></tr></table></center>" }, "geometry": { "type": "Point", "coordinates": [ 103.830031459523994, 1.26977220124441 ] } },
{ "type": "Feature", "properties": { "Name": "Cantonment", "Description": "<center><table><tr><th colspan='2' align='center'>Cantonment</th></tr><tr><th>NAME</th><td>Cantonment</td></tr></table></center>" }, "geometry": { "type": "Point", "coordinates": [ 103.837062313763994, 1.27287214563203 ] } },
{ "type": "Feature", "properties": { "Name": "Prince Edward Road", "Description": "<center><table><tr><th colspan='2' align='center'>Prince Edward Road</th></tr><tr><th>NAME</th><td>Prince Edward Road</td></tr></table></center>" }, "geometry": { "type": "Point", "coordinates": [ 103.847097123745002, 1.27315693636085 ] } },
{ "type": "Feature", "properties": { "Name": "Bayfront", "Description": "<center><table><tr><th colspan='2' align='center'>Bayfront</th></tr><tr><th>NAME</th><td>Bayfront</td></tr></table></center>" }, "geometry": { "type": "Point", "coordinates": [ 103.859079764873997, 1.28187378879209 ] } },
{ "type": "Feature", "properties": { "Name": "Marina Bay", "Description": "<center><table><tr><th colspan='2' align='center'>Marina Bay</th></tr><tr><th>NAME</th><td>Marina Bay</td></tr></table></center>" }, "geometry": { "type": "Point", "coordinates": [ 103.855447156278998, 1.27625146423743 ] } },
{ "type": "Feature", "properties": { "Name": "Expo", "Description": "<center><table><tr><th colspan='2' align='center'>Expo</th></tr><tr><th>NAME</th><td>Expo</td></tr></table></center>" }, "geometry": { "type": "Point", "coordinates": [ 103.961548211017998, 1.33454977824817 ] } },
{ "type": "Feature", "properties": { "Name": "Changi Airport", "Description": "<center><table><tr><th colspan='2' align='center'>Changi Airport</th></tr><tr><th>NAME</th><td>Changi Airport</td></tr></table></center>" }, "geometry": { "type": "Point", "coordinates": [ 103.987883569589997, 1.35747897447692 ] } },
{ "type": "Feature", "properties": { "Name": "Pasir Ris", "Description": "<center><table><tr><th colspan='2' align='center'>Pasir Ris</th></tr><tr><th>NAME</th><td>Pasir Ris</td></tr></table></center>" }, "geometry": { "type": "Point", "coordinates": [ 103.948882918878482, 1.371259477431133 ] } },
{ "type": "Feature", "properties": { "Name": "Elias", "Description": "<center><table><tr><th colspan='2' align='center'>Elias</th></tr><tr><th>NAME</th><td>Elias</td></tr></table></center>" }, "geometry": { "type": "Point", "coordinates": [ 103.939046, 1.383221 ] } },
{ "type": "Feature", "properties": { "Name": "Riviera", "Description": "<center><table><tr><th colspan='2' align='center'>Riviera</th></tr><tr><th>NAME</th><td>Riviera</td></tr></table></center>" }, "geometry": { "type": "Point", "coordinates": [ 103.916223790009198, 1.394636478607578 ] } },
{ "type": "Feature", "properties": { "Name": "Punggol", "Description": "<center><table><tr><th colspan='2' align='center'>Punggol</th></tr><tr><th>NAME</th><td>Punggol</td></tr></table></center>" }, "geometry": { "type": "Point", "coordinates": [ 103.902373978177181, 1.405132590785555 ] } },
{ "type": "Feature", "properties": { "Name": "Changi Airport Terminal 5", "Description": "<center><table><tr><th colspan='2' align='center'>Changi Airport Terminal 5</th></tr><tr><th>NAME</th><td>Changi Airport Terminal 5</td></tr></table></center>" }, "geometry": { "type": "Point", "coordinates": [ 103.99643, 1.33473 ] } },
{ "type": "Feature", "properties": { "Name": "Aviation Park", "Description": "<center><table><tr><th colspan='2' align='center'>Aviation Park</th></tr><tr><th>NAME</th><td>Aviation Park</td></tr></table></center>" }, "geometry": { "type": "Point", "coordinates": [ 104.003513848058475, 1.370211388184954 ] } },
{ "type": "Feature", "properties": { "Name": "Loyang", "Description": "<center><table><tr><th colspan='2' align='center'>Loyang</th></tr><tr><th>NAME</th><td>Loyang</td></tr></table></center>" }, "geometry": { "type": "Point", "coordinates": [ 103.97192000259416, 1.371144393904073 ] } },
{ "type": "Feature", "properties": { "Name": "Pasir Ris East", "Description": "<center><table><tr><th colspan='2' align='center'>Pasir Ris East</th></tr><tr><th>NAME</th><td>Pasir Ris East</td></tr></table></center>" }, "geometry": { "type": "Point", "coordinates": [ 103.960580666039206, 1.367018495077423 ] } },
{ "type": "Feature", "properties": { "Name": "Pasir Ris", "Description": "<center><table><tr><th colspan='2' align='center'>Pasir Ris</th></tr><tr><th>NAME</th><td>Pasir Ris</td></tr></table></center>" }, "geometry": { "type": "Point", "coordinates": [ 103.948882918878482, 1.371259477431133 ] } },
{ "type": "Feature", "properties": { "Name": "Tampines North", "Description": "<center><table><tr><th colspan='2' align='center'>Tampines North</th></tr><tr><th>NAME</th><td>Tampines North</td></tr></table></center>" }, "geometry": { "type": "Point", "coordinates": [ 103.938132421510161, 1.369428570491195 ] } },
{ "type": "Feature", "properties": { "Name": "Defu", "Description": "<center><table><tr><th colspan='2' align='center'>Defu</th></tr><tr><th>NAME</th><td>Defu</td></tr></table></center>" }, "geometry": { "type": "Point", "coordinates": [ 103.898996012907176, 1.362340217706843 ] } },
{ "type": "Feature", "properties": { "Name": "Hougang", "Description": "<center><table><tr><th colspan='2' align='center'>Hougang</th></tr><tr><th>NAME</th><td>Hougang</td></tr></table></center>" }, "geometry": { "type": "Point", "coordinates": [ 103.891147209235385, 1.370975602653816 ] } },
{ "type": "Feature", "properties": { "Name": "Serangoon North", "Description": "<center><table><tr><th colspan='2' align='center'>Serangoon North</th></tr><tr><th>NAME</th><td>Serangoon North</td></tr></table></center>" }, "geometry": { "type": "Point", "coordinates": [ 103.873791142797117, 1.370602610389007 ] } },
{ "type": "Feature", "properties": { "Name": "Tavistock", "Description": "<center><table><tr><th colspan='2' align='center'>Tavistock</th></tr><tr><th>NAME</th><td>Tavistock</td></tr></table></center>" }, "geometry": { "type": "Point", "coordinates": [ 103.863252020116278, 1.370188549111292 ] } },
{ "type": "Feature", "properties": { "Name": "Ang Mo Kio", "Description": "<center><table><tr><th colspan='2' align='center'>Ang Mo Kio</th></tr><tr><th>NAME</th><td>Ang Mo Kio</td></tr></table></center>" }, "geometry": { "type": "Point", "coordinates": [ 103.850909448291446, 1.369388385096141 ] } },
{ "type": "Feature", "properties": { "Name": "Teck Ghee", "Description": "<center><table><tr><th colspan='2' align='center'>Teck Ghee</th></tr><tr><th>NAME</th><td>Teck Ghee</td></tr></table></center>" }, "geometry": { "type": "Point", "coordinates": [ 103.84351959304216, 1.36542156904779 ] } },
{ "type": "Feature", "properties": { "Name": "Bright Hill", "Description": "<center><table><tr><th colspan='2' align='center'>Bright Hill</th></tr><tr><th>NAME</th><td>Bright Hill</td></tr></table></center>" }, "geometry": { "type": "Point", "coordinates": [ 103.834938196767482, 1.363308532443982 ] } },
{ "type": "Feature", "properties": { "Name": "Turf City", "Description": "<center><table><tr><th colspan='2' align='center'>Turf City</th></tr><tr><th>NAME</th><td>Turf City</td></tr></table></center>" }, "geometry": { "type": "Point", "coordinates": [ 103.794401, 1.340613 ] } },
{ "type": "Feature", "properties": { "Name": "King Albert Park", "Description": "<center><table><tr><th colspan='2' align='center'>King Albert Park</th></tr><tr><th>NAME</th><td>King Albert Park</td></tr></table></center>" }, "geometry": { "type": "Point", "coordinates": [ 103.783792015692299, 1.335664796203119 ] } },
{ "type": "Feature", "properties": { "Name": "Maju", "Description": "<center><table><tr><th colspan='2' align='center'>Maju</th></tr><tr><th>NAME</th><td>Maju</td></tr></table></center>" }, "geometry": { "type": "Point", "coordinates": [ 103.777127, 1.327985 ] } },
{ "type": "Feature", "properties": { "Name": "Clementi", "Description": "<center><table><tr><th colspan='2' align='center'>Clementi</th></tr><tr><th>NAME</th><td>Clementi</td></tr></table></center>" }, "geometry": { "type": "Point", "coordinates": [ 103.765233031942486, 1.315078221973319 ] } },
{ "type": "Feature", "properties": { "Name": "West Coast", "Description": "<center><table><tr><th colspan='2' align='center'>West Coast</th></tr><tr><th>NAME</th><td>West Coast</td></tr></table></center>" }, "geometry": { "type": "Point", "coordinates": [ 103.757885, 1.310566 ] } },
{ "type": "Feature", "properties": { "Name": "Jurong Lake District", "Description": "<center><table><tr><th colspan='2' align='center'>Jurong Lake District</th></tr><tr><th>NAME</th><td>Jurong Lake District</td></tr></table></center>" }, "geometry": { "type": "Point", "coordinates": [ 103.739324, 1.327147 ] } },
{ "type": "Feature", "properties": { "Name": "Yew Tee Village", "Description": "<center><table><tr><th colspan='2' align='center'>Yew Tee Village</th></tr><tr><th>NAME</th><td>Yew Tee Village</td></tr></table></center>" }, "geometry": { "type": "Point", "coordinates": [ 103.752644, 1.400099 ] } },
{ "type": "Feature", "properties": { "Name": "Sungei Kadut", "Description": "<center><table><tr><th colspan='2' align='center'>Sungei Kadut</th></tr><tr><th>NAME</th><td>Sungei Kadut</td></tr></table></center>" }, "geometry": { "type": "Point", "coordinates": [ 103.750198, 1.412569 ] } },
{ "type": "Feature", "properties": { "Name": "Bukit Panjang", "Description": "<center><table><tr><th colspan='2' align='center'>Bukit Panjang</th></tr><tr><th>NAME</th><td>Bukit Panjang</td></tr></table></center>" }, "geometry": { "type": "Point", "coordinates": [ 103.761535114929003, 1.37900211641036 ] } },
{ "type": "Feature", "properties": { "Name": "Cashew", "Description": "<center><table><tr><th colspan='2' align='center'>Cashew</th></tr><tr><th>NAME</th><td>Cashew</td></tr></table></center>" }, "geometry": { "type": "Point", "coordinates": [ 103.764439214139998, 1.36981544925552 ] } },
{ "type": "Feature", "properties": { "Name": "Hillview", "Description": "<center><table><tr><th colspan='2' align='center'>Hillview</th></tr><tr><th>NAME</th><td>Hillview</td></tr></table></center>" }, "geometry": { "type": "Point", "coordinates": [ 103.767418254006998, 1.36234486803558 ] } },
{ "type": "Feature", "properties": { "Name": "Hume", "Description": "<center><table><tr><th colspan='2' align='center'>Hume</th></tr><tr><th>NAME</th><td>Hume</td></tr></table></center>" }, "geometry": { "type": "Point", "coordinates": [ 103.769103928955246, 1.354510835593032 ] } },
{ "type": "Feature", "properties": { "Name": "Beauty World", "Description": "<center><table><tr><th colspan='2' align='center'>Beauty World</th></tr><tr><th>NAME</th><td>Beauty World</td></tr></table></center>" }, "geometry": { "type": "Point", "coordinates": [ 103.775794285082995, 1.34122317558549 ] } },
{ "type": "Feature", "properties": { "Name": "King Albert Park", "Description": "<center><table><tr><th colspan='2' align='center'>King Albert Park</th></tr><tr><th>NAME</th><td>King Albert Park</td></tr></table></center>" }, "geometry": { "type": "Point", "coordinates": [ 103.783399113441007, 1.33566161262214 ] } },
{ "type": "Feature", "properties": { "Name": "Sixth Avenue", "Description": "<center><table><tr><th colspan='2' align='center'>Sixth Avenue</th></tr><tr><th>NAME</th><td>Sixth Avenue</td></tr></table></center>" }, "geometry": { "type": "Point", "coordinates": [ 103.796906838287995, 1.33085764536226 ] } },
{ "type": "Feature", "properties": { "Name": "Tan Kah Kee", "Description": "<center><table><tr><th colspan='2' align='center'>Tan Kah Kee</th></tr><tr><th>NAME</th><td>Tan Kah Kee</td></tr></table></center>" }, "geometry": { "type": "Point", "coordinates": [ 103.807760304729001, 1.32555623519898 ] } },
{ "type": "Feature", "properties": { "Name": "Botanic Gardens", "Description": "<center><table><tr><th colspan='2' align='center'>Botanic Gardens</th></tr><tr><th>NAME</th><td>Botanic Gardens</td></tr></table></center>" }, "geometry": { "type": "Point", "coordinates": [ 103.816013994258995, 1.32248807089544 ] } },
{ "type": "Feature", "properties": { "Name": "Stevens", "Description": "<center><table><tr><th colspan='2' align='center'>Stevens</th></tr><tr><th>NAME</th><td>Stevens</td></tr></table></center>" }, "geometry": { "type": "Point", "coordinates": [ 103.826024401924002, 1.32006555750626 ] } },
{ "type": "Feature", "properties": { "Name": "Newton", "Description": "<center><table><tr><th colspan='2' align='center'>Newton</th></tr><tr><th>NAME</th><td>Newton</td></tr></table></center>" }, "geometry": { "type": "Point", "coordinates": [ 103.837714613090995, 1.31399286264569 ] } },
{ "type": "Feature", "properties": { "Name": "Little India", "Description": "<center><table><tr><th colspan='2' align='center'>Little India</th></tr><tr><th>NAME</th><td>Little India</td></tr></table></center>" }, "geometry": { "type": "Point", "coordinates": [ 103.848660935091999, 1.30701826765224 ] } },
{ "type": "Feature", "properties": { "Name": "Rochor", "Description": "<center><table><tr><th colspan='2' align='center'>Rochor</th></tr><tr><th>NAME</th><td>Rochor</td></tr></table></center>" }, "geometry": { "type": "Point", "coordinates": [ 103.852769428884002, 1.30385218527656 ] } },
{ "type": "Feature", "properties": { "Name": "Bugis", "Description": "<center><table><tr><th colspan='2' align='center'>Bugis</th></tr><tr><th>NAME</th><td>Bugis</td></tr></table></center>" }, "geometry": { "type": "Point", "coordinates": [ 103.857125959022994, 1.29931350344582 ] } },
{ "type": "Feature", "properties": { "Name": "Promenade", "Description": "<center><table><tr><th colspan='2' align='center'>Promenade</th></tr><tr><th>NAME</th><td>Promenade</td></tr></table></center>" }, "geometry": { "type": "Point", "coordinates": [ 103.860891800025001, 1.29289175383295 ] } },
{ "type": "Feature", "properties": { "Name": "Bayfront", "Description": "<center><table><tr><th colspan='2' align='center'>Bayfront</th></tr><tr><th>NAME</th><td>Bayfront</td></tr></table></center>" }, "geometry": { "type": "Point", "coordinates": [ 103.859079764873997, 1.28187378879209 ] } },
{ "type": "Feature", "properties": { "Name": "Downtown", "Description": "<center><table><tr><th colspan='2' align='center'>Downtown</th></tr><tr><th>NAME</th><td>Downtown</td></tr></table></center>" }, "geometry": { "type": "Point", "coordinates": [ 103.852840829580998, 1.27944638178916 ] } },
{ "type": "Feature", "properties": { "Name": "Telok Ayer", "Description": "<center><table><tr><th colspan='2' align='center'>Telok Ayer</th></tr><tr><th>NAME</th><td>Telok Ayer</td></tr></table></center>" }, "geometry": { "type": "Point", "coordinates": [ 103.848648781083, 1.28206894769394 ] } },
{ "type": "Feature", "properties": { "Name": "Chinatown", "Description": "<center><table><tr><th colspan='2' align='center'>Chinatown</th></tr><tr><th>NAME</th><td>Chinatown</td></tr></table></center>" }, "geometry": { "type": "Point", "coordinates": [ 103.845143798953004, 1.28422391919085 ] } },
{ "type": "Feature", "properties": { "Name": "Fort Canning", "Description": "<center><table><tr><th colspan='2' align='center'>Fort Canning</th></tr><tr><th>NAME</th><td>Fort Canning</td></tr></table></center>" }, "geometry": { "type": "Point", "coordinates": [ 103.844331362464999, 1.29248194822996 ] } },
{ "type": "Feature", "properties": { "Name": "Bencoolen", "Description": "<center><table><tr><th colspan='2' align='center'>Bencoolen</th></tr><tr><th>NAME</th><td>Bencoolen</td></tr></table></center>" }, "geometry": { "type": "Point", "coordinates": [ 103.850353762717006, 1.29891843369422 ] } },
{ "type": "Feature", "properties": { "Name": "Jalan Besar", "Description": "<center><table><tr><th colspan='2' align='center'>Jalan Besar</th></tr><tr><th>NAME</th><td>Jalan Besar</td></tr></table></center>" }, "geometry": { "type": "Point", "coordinates": [ 103.855295713434998, 1.3051713878069 ] } },
{ "type": "Feature", "properties": { "Name": "Bendemeer", "Description": "<center><table><tr><th colspan='2' align='center'>Bendemeer</th></tr><tr><th>NAME</th><td>Bendemeer</td></tr></table></center>" }, "geometry": { "type": "Point", "coordinates": [ 103.862977620945003, 1.31367252847691 ] } },
{ "type": "Feature", "properties": { "Name": "Geylang Bahru", "Description": "<center><table><tr><th colspan='2' align='center'>Geylang Bahru</th></tr><tr><th>NAME</th><td>Geylang Bahru</td></tr></table></center>" }, "geometry": { "type": "Point", "coordinates": [ 103.871622627142003, 1.32130110228321 ] } },
{ "type": "Feature", "properties": { "Name": "Mattar", "Description": "<center><table><tr><th colspan='2' align='center'>Mattar</th></tr><tr><th>NAME</th><td>Mattar</td></tr></table></center>" }, "geometry": { "type": "Point", "coordinates": [ 103.883247509542002, 1.32687671501334 ] } },
{ "type": "Feature", "properties": { "Name": "MacPherson", "Description": "<center><table><tr><th colspan='2' align='center'>MacPherson</th></tr><tr><th>NAME</th><td>MacPherson</td></tr></table></center>" }, "geometry": { "type": "Point", "coordinates": [ 103.889298600375994, 1.32615024457361 ] } },
{ "type": "Feature", "properties": { "Name": "Ubi", "Description": "<center><table><tr><th colspan='2' align='center'>Ubi</th></tr><tr><th>NAME</th><td>Ubi</td></tr></table></center>" }, "geometry": { "type": "Point", "coordinates": [ 103.899226655438994, 1.32997425973974 ] } },
{ "type": "Feature", "properties": { "Name": "Kaki Bukit", "Description": "<center><table><tr><th colspan='2' align='center'>Kaki Bukit</th></tr><tr><th>NAME</th><td>Kaki Bukit</td></tr></table></center>" }, "geometry": { "type": "Point", "coordinates": [ 103.908459338046001, 1.33496735995428 ] } },
{ "type": "Feature", "properties": { "Name": "Bedok North", "Description": "<center><table><tr><th colspan='2' align='center'>Bedok North</th></tr><tr><th>NAME</th><td>Bedok North</td></tr></table></center>" }, "geometry": { "type": "Point", "coordinates": [ 103.917978329950003, 1.33474211664091 ] } },
{ "type": "Feature", "properties": { "Name": "Bedok Reservoir", "Description": "<center><table><tr><th colspan='2' align='center'>Bedok Reservoir</th></tr><tr><th>NAME</th><td>Bedok Reservoir</td></tr></table></center>" }, "geometry": { "type": "Point", "coordinates": [ 103.932234623286007, 1.33660782955099 ] } },
{ "type": "Feature", "properties": { "Name": "Tampines West", "Description": "<center><table><tr><th colspan='2' align='center'>Tampines West</th></tr><tr><th>NAME</th><td>Tampines West</td></tr></table></center>" }, "geometry": { "type": "Point", "coordinates": [ 103.938436971222004, 1.34551530560119 ] } },
{ "type": "Feature", "properties": { "Name": "Tampines", "Description": "<center><table><tr><th colspan='2' align='center'>Tampines</th></tr><tr><th>NAME</th><td>Tampines</td></tr></table></center>" }, "geometry": { "type": "Point", "coordinates": [ 103.943009883130998, 1.35515041120473 ] } },
{ "type": "Feature", "properties": { "Name": "Tampines East", "Description": "<center><table><tr><th colspan='2' align='center'>Tampines East</th></tr><tr><th>NAME</th><td>Tampines East</td></tr></table></center>" }, "geometry": { "type": "Point", "coordinates": [ 103.954634462499996, 1.35619148271544 ] } },
{ "type": "Feature", "properties": { "Name": "Upper Changi", "Description": "<center><table><tr><th colspan='2' align='center'>Upper Changi</th></tr><tr><th>NAME</th><td>Upper Changi</td></tr></table></center>" }, "geometry": { "type": "Point", "coordinates": [ 103.961472788633998, 1.34173977444995 ] } },
{ "type": "Feature", "properties": { "Name": "Expo", "Description": "<center><table><tr><th colspan='2' align='center'>Expo</th></tr><tr><th>NAME</th><td>Expo</td></tr></table></center>" }, "geometry": { "type": "Point", "coordinates": [ 103.962374747450994, 1.33538252614956 ] } },
{ "type": "Feature", "properties": { "Name": "Xilin", "Description": "<center><table><tr><th colspan='2' align='center'>Xilin</th></tr><tr><th>NAME</th><td>Xilin</td></tr></table></center>" }, "geometry": { "type": "Point", "coordinates": [ 103.964902569594997, 1.32890694938858 ] } },
{ "type": "Feature", "properties": { "Name": "Sungei Bedok", "Description": "<center><table><tr><th colspan='2' align='center'>Sungei Bedok</th></tr><tr><th>NAME</th><td>Sungei Bedok</td></tr></table></center>" }, "geometry": { "type": "Point", "coordinates": [ 103.957183823478005, 1.32040148729112 ] } },
{ "type": "Feature", "properties": { "Name": "Pasir Ris", "Description": "<center><table><tr><th colspan='2' align='center'>Pasir Ris</th></tr><tr><th>NAME</th><td>Pasir Ris</td></tr></table></center>" }, "geometry": { "type": "Point", "coordinates": [ 103.949284527762998, 1.37304331635804 ] } },
{ "type": "Feature", "properties": { "Name": "Tampines", "Description": "<center><table><tr><th colspan='2' align='center'>Tampines</th></tr><tr><th>NAME</th><td>Tampines</td></tr></table></center>" }, "geometry": { "type": "Point", "coordinates": [ 103.945144586748995, 1.35330167637376 ] } },
{ "type": "Feature", "properties": { "Name": "Simei", "Description": "<center><table><tr><th colspan='2' align='center'>Simei</th></tr><tr><th>NAME</th><td>Simei</td></tr></table></center>" }, "geometry": { "type": "Point", "coordinates": [ 103.953377214377994, 1.34319707851829 ] } },
{ "type": "Feature", "properties": { "Name": "Tanah Merah", "Description": "<center><table><tr><th colspan='2' align='center'>Tanah Merah</th></tr><tr><th>NAME</th><td>Tanah Merah</td></tr></table></center>" }, "geometry": { "type": "Point", "coordinates": [ 103.946348600798004, 1.32718729074675 ] } },
{ "type": "Feature", "properties": { "Name": "Bedok", "Description": "<center><table><tr><th colspan='2' align='center'>Bedok</th></tr><tr><th>NAME</th><td>Bedok</td></tr></table></center>" }, "geometry": { "type": "Point", "coordinates": [ 103.929984495065995, 1.32397996868158 ] } },
{ "type": "Feature", "properties": { "Name": "Kembangan", "Description": "<center><table><tr><th colspan='2' align='center'>Kembangan</th></tr><tr><th>NAME</th><td>Kembangan</td></tr></table></center>" }, "geometry": { "type": "Point", "coordinates": [ 103.912947930851004, 1.3210381335934 ] } },
{ "type": "Feature", "properties": { "Name": "Eunos", "Description": "<center><table><tr><th colspan='2' align='center'>Eunos</th></tr><tr><th>NAME</th><td>Eunos</td></tr></table></center>" }, "geometry": { "type": "Point", "coordinates": [ 103.903225807254998, 1.31978354916088 ] } },
{ "type": "Feature", "properties": { "Name": "Paya Lebar", "Description": "<center><table><tr><th colspan='2' align='center'>Paya Lebar</th></tr><tr><th>NAME</th><td>Paya Lebar</td></tr></table></center>" }, "geometry": { "type": "Point", "coordinates": [ 103.893060771576003, 1.31811149224527 ] } },
{ "type": "Feature", "properties": { "Name": "Aljunied", "Description": "<center><table><tr><th colspan='2' align='center'>Aljunied</th></tr><tr><th>NAME</th><td>Aljunied</td></tr></table></center>" }, "geometry": { "type": "Point", "coordinates": [ 103.882906044384995, 1.3164326118157 ] } },
{ "type": "Feature", "properties": { "Name": "Kallang", "Description": "<center><table><tr><th colspan='2' align='center'>Kallang</th></tr><tr><th>NAME</th><td>Kallang</td></tr></table></center>" }, "geometry": { "type": "Point", "coordinates": [ 103.871386541754006, 1.31148890998818 ] } },
{ "type": "Feature", "properties": { "Name": "Lavender", "Description": "<center><table><tr><th colspan='2' align='center'>Lavender</th></tr><tr><th>NAME</th><td>Lavender</td></tr></table></center>" }, "geometry": { "type": "Point", "coordinates": [ 103.862767633887998, 1.30737781747063 ] } },
{ "type": "Feature", "properties": { "Name": "Bugis", "Description": "<center><table><tr><th colspan='2' align='center'>Bugis</th></tr><tr><th>NAME</th><td>Bugis</td></tr></table></center>" }, "geometry": { "type": "Point", "coordinates": [ 103.855706730932994, 1.30046508509717 ] } },
{ "type": "Feature", "properties": { "Name": "City Hall", "Description": "<center><table><tr><th colspan='2' align='center'>City Hall</th></tr><tr><th>NAME</th><td>City Hall</td></tr></table></center>" }, "geometry": { "type": "Point", "coordinates": [ 103.852585580365997, 1.29293672227779 ] } },
{ "type": "Feature", "properties": { "Name": "Raffles Place", "Description": "<center><table><tr><th colspan='2' align='center'>Raffles Place</th></tr><tr><th>NAME</th><td>Raffles Place</td></tr></table></center>" }, "geometry": { "type": "Point", "coordinates": [ 103.851461712342001, 1.28412561043658 ] } },
{ "type": "Feature", "properties": { "Name": "Tanjong Pagar", "Description": "<center><table><tr><th colspan='2' align='center'>Tanjong Pagar</th></tr><tr><th>NAME</th><td>Tanjong Pagar</td></tr></table></center>" }, "geometry": { "type": "Point", "coordinates": [ 103.845725186758997, 1.27656131737246 ] } },
{ "type": "Feature", "properties": { "Name": "Outram Park", "Description": "<center><table><tr><th colspan='2' align='center'>Outram Park</th></tr><tr><th>NAME</th><td>Outram Park</td></tr></table></center>" }, "geometry": { "type": "Point", "coordinates": [ 103.839130979249006, 1.28140504772213 ] } },
{ "type": "Feature", "properties": { "Name": "Tiong Bahru", "Description": "<center><table><tr><th colspan='2' align='center'>Tiong Bahru</th></tr><tr><th>NAME</th><td>Tiong Bahru</td></tr></table></center>" }, "geometry": { "type": "Point", "coordinates": [ 103.827445112418999, 1.28610253615775 ] } },
{ "type": "Feature", "properties": { "Name": "Redhill", "Description": "<center><table><tr><th colspan='2' align='center'>Redhill</th></tr><tr><th>NAME</th><td>Redhill</td></tr></table></center>" }, "geometry": { "type": "Point", "coordinates": [ 103.816740972049999, 1.28963453412887 ] } },
{ "type": "Feature", "properties": { "Name": "Queenstown", "Description": "<center><table><tr><th colspan='2' align='center'>Queenstown</th></tr><tr><th>NAME</th><td>Queenstown</td></tr></table></center>" }, "geometry": { "type": "Point", "coordinates": [ 103.806077155981995, 1.29455085184931 ] } },
{ "type": "Feature", "properties": { "Name": "Commonwealth", "Description": "<center><table><tr><th colspan='2' align='center'>Commonwealth</th></tr><tr><th>NAME</th><td>Commonwealth</td></tr></table></center>" }, "geometry": { "type": "Point", "coordinates": [ 103.798228523335993, 1.30250199924325 ] } },
{ "type": "Feature", "properties": { "Name": "Buona Vista", "Description": "<center><table><tr><th colspan='2' align='center'>Buona Vista</th></tr><tr><th>NAME</th><td>Buona Vista</td></tr></table></center>" }, "geometry": { "type": "Point", "coordinates": [ 103.790253514501998, 1.3072237082044 ] } },
{ "type": "Feature", "properties": { "Name": "Dover", "Description": "<center><table><tr><th colspan='2' align='center'>Dover</th></tr><tr><th>NAME</th><td>Dover</td></tr></table></center>" }, "geometry": { "type": "Point", "coordinates": [ 103.778637841909003, 1.31140529320963 ] } },
{ "type": "Feature", "properties": { "Name": "Clementi", "Description": "<center><table><tr><th colspan='2' align='center'>Clementi</th></tr><tr><th>NAME</th><td>Clementi</td></tr></table></center>" }, "geometry": { "type": "Point", "coordinates": [ 103.765191452888004, 1.31511625277378 ] } },
{ "type": "Feature", "properties": { "Name": "Jurong East", "Description": "<center><table><tr><th colspan='2' align='center'>Jurong East</th></tr><tr><th>NAME</th><td>Jurong East</td></tr></table></center>" }, "geometry": { "type": "Point", "coordinates": [ 103.742286332402998, 1.33315281585758 ] } },
{ "type": "Feature", "properties": { "Name": "Chinese Garden", "Description": "<center><table><tr><th colspan='2' align='center'>Chinese Garden</th></tr><tr><th>NAME</th><td>Chinese Garden</td></tr></table></center>" }, "geometry": { "type": "Point", "coordinates": [ 103.732596738363, 1.34235282081401 ] } },
{ "type": "Feature", "properties": { "Name": "Lakeside", "Description": "<center><table><tr><th colspan='2' align='center'>Lakeside</th></tr><tr><th>NAME</th><td>Lakeside</td></tr></table></center>" }, "geometry": { "type": "Point", "coordinates": [ 103.720949087456006, 1.34425911493819 ] } },
{ "type": "Feature", "properties": { "Name": "Boon Lay", "Description": "<center><table><tr><th colspan='2' align='center'>Boon Lay</th></tr><tr><th>NAME</th><td>Boon Lay</td></tr></table></center>" }, "geometry": { "type": "Point", "coordinates": [ 103.706064622772004, 1.33860405469845 ] } },
{ "type": "Feature", "properties": { "Name": "Pioneer", "Description": "<center><table><tr><th colspan='2' align='center'>Pioneer</th></tr><tr><th>NAME</th><td>Pioneer</td></tr></table></center>" }, "geometry": { "type": "Point", "coordinates": [ 103.697321608473999, 1.33758701106708 ] } },
{ "type": "Feature", "properties": { "Name": "Joo Koon", "Description": "<center><table><tr><th colspan='2' align='center'>Joo Koon</th></tr><tr><th>NAME</th><td>Joo Koon</td></tr></table></center>" }, "geometry": { "type": "Point", "coordinates": [ 103.678374996165005, 1.3277170408447 ] } },
{ "type": "Feature", "properties": { "Name": "Gul Circle", "Description": "<center><table><tr><th colspan='2' align='center'>Gul Circle</th></tr><tr><th>NAME</th><td>Gul Circle</td></tr></table></center>" }, "geometry": { "type": "Point", "coordinates": [ 103.660530461345004, 1.31947090075208 ] } },
{ "type": "Feature", "properties": { "Name": "Tuas Crescent", "Description": "<center><table><tr><th colspan='2' align='center'>Tuas Crescent</th></tr><tr><th>NAME</th><td>Tuas Crescent</td></tr></table></center>" }, "geometry": { "type": "Point", "coordinates": [ 103.649078235627002, 1.32102695598684 ] } },
{ "type": "Feature", "properties": { "Name": "Tuas West Road", "Description": "<center><table><tr><th colspan='2' align='center'>Tuas West Road</th></tr><tr><th>NAME</th><td>Tuas West Road</td></tr></table></center>" }, "geometry": { "type": "Point", "coordinates": [ 103.639616648770996, 1.32998504653102 ] } },
{ "type": "Feature", "properties": { "Name": "Tuas Link", "Description": "<center><table><tr><th colspan='2' align='center'>Tuas Link</th></tr><tr><th>NAME</th><td>Tuas Link</td></tr></table></center>" }, "geometry": { "type": "Point", "coordinates": [ 103.636991425128002, 1.34088242451105 ] } },
{ "type": "Feature", "properties": { "Name": "Tengah Plantation", "Description": "<center><table><tr><th colspan='2' align='center'>Tengah Plantation</th></tr><tr><th>NAME</th><td>Tengah Plantation</td></tr></table></center>" }, "geometry": { "type": "Point", "coordinates": [ 103.733452983686618, 1.357332135264109 ] } },
{ "type": "Feature", "properties": { "Name": "Tengah Park", "Description": "<center><table><tr><th colspan='2' align='center'>Tengah Park</th></tr><tr><th>NAME</th><td>Tengah Park</td></tr></table></center>" }, "geometry": { "type": "Point", "coordinates": [ 103.736790910595474, 1.352329759371591 ] } },
{ "type": "Feature", "properties": { "Name": "Bukit Batok West", "Description": "<center><table><tr><th colspan='2' align='center'>Bukit Batok West</th></tr><tr><th>NAME</th><td>Bukit Batok West</td></tr></table></center>" }, "geometry": { "type": "Point", "coordinates": [ 103.739501967521662, 1.345673951039227 ] } },
{ "type": "Feature", "properties": { "Name": "Toh Guan", "Description": "<center><table><tr><th colspan='2' align='center'>Toh Guan</th></tr><tr><th>NAME</th><td>Toh Guan</td></tr></table></center>" }, "geometry": { "type": "Point", "coordinates": [ 103.742494812135007, 1.339909056890633 ] } },
{ "type": "Feature", "properties": { "Name": "Jurong East", "Description": "<center><table><tr><th colspan='2' align='center'>Jurong East</th></tr><tr><th>NAME</th><td>Jurong East</td></tr></table></center>" }, "geometry": { "type": "Point", "coordinates": [ 103.741909765620363, 1.332965852882198 ] } },
{ "type": "Feature", "properties": { "Name": "Jurong Town Hall", "Description": "<center><table><tr><th colspan='2' align='center'>Jurong Town Hall</th></tr><tr><th>NAME</th><td>Jurong Town Hall</td></tr></table></center>" }, "geometry": { "type": "Point", "coordinates": [ 103.745212052608736, 1.326378977647108 ] } },
{ "type": "Feature", "properties": { "Name": "Pandan Reservoir", "Description": "<center><table><tr><th colspan='2' align='center'>Pandan Reservoir</th></tr><tr><th>NAME</th><td>Pandan Reservoir</td></tr></table></center>" }, "geometry": { "type": "Point", "coordinates": [ 103.744800765191641, 1.320458223153378 ] } },
{ "type": "Feature", "properties": { "Name": "Choa Chu Kang", "Description": "<center><table><tr><th colspan='2' align='center'>Choa Chu Kang</th></tr><tr><th>NAME</th><td>Choa Chu Kang</td></tr></table></center>" }, "geometry": { "type": "Point", "coordinates": [ 103.744114080031864, 1.385382350507513 ] } },
{ "type": "Feature", "properties": { "Name": "Choa Chu Kang West", "Description": "<center><table><tr><th colspan='2' align='center'>Choa Chu Kang West</th></tr><tr><th>NAME</th><td>Choa Chu Kang West</td></tr></table></center>" }, "geometry": { "type": "Point", "coordinates": [ 103.7400134290408, 1.379221009084314 ] } },
{ "type": "Feature", "properties": { "Name": "Tengah", "Description": "<center><table><tr><th colspan='2' align='center'>Tengah</th></tr><tr><th>NAME</th><td>Tengah</td></tr></table></center>" }, "geometry": { "type": "Point", "coordinates": [ 103.730083541654523, 1.36638439519754 ] } },
{ "type": "Feature", "properties": { "Name": "Hong Kah", "Description": "<center><table><tr><th colspan='2' align='center'>Hong Kah</th></tr><tr><th>NAME</th><td>Hong Kah</td></tr></table></center>" }, "geometry": { "type": "Point", "coordinates": [ 103.726153007988003, 1.35812200829127 ] } },
{ "type": "Feature", "properties": { "Name": "Corporation", "Description": "<center><table><tr><th colspan='2' align='center'>Corporation</th></tr><tr><th>NAME</th><td>Corporation</td></tr></table></center>" }, "geometry": { "type": "Point", "coordinates": [ 103.713812995456195, 1.352969534325842 ] } },
{ "type": "Feature", "properties": { "Name": "Jurong West", "Description": "<center><table><tr><th colspan='2' align='center'>Jurong West</th></tr><tr><th>NAME</th><td>Jurong West</td></tr></table></center>" }, "geometry": { "type": "Point", "coordinates": [ 103.708256832836639, 1.349185140928664 ] } },
{ "type": "Feature", "properties": { "Name": "Bahar Junction", "Description": "<center><table><tr><th colspan='2' align='center'>Bahar Junction</th></tr><tr><th>NAME</th><td>Bahar Junction</td></tr></table></center>" }, "geometry": { "type": "Point", "coordinates": [ 103.703034101996479, 1.346191732290843 ] } },
{ "type": "Feature", "properties": { "Name": "Boon Lay", "Description": "<center><table><tr><th colspan='2' align='center'>Boon Lay</th></tr><tr><th>NAME</th><td>Boon Lay</td></tr></table></center>" }, "geometry": { "type": "Point", "coordinates": [ 103.704573671543017, 1.33810802540565 ] } },
{ "type": "Feature", "properties": { "Name": "Enterprise", "Description": "<center><table><tr><th colspan='2' align='center'>Enterprise</th></tr><tr><th>NAME</th><td>Enterprise</td></tr></table></center>" }, "geometry": { "type": "Point", "coordinates": [ 103.708579757793302, 1.332731669665473 ] } },
{ "type": "Feature", "properties": { "Name": "Tukang", "Description": "<center><table><tr><th colspan='2' align='center'>Tukang</th></tr><tr><th>NAME</th><td>Tukang</td></tr></table></center>" }, "geometry": { "type": "Point", "coordinates": [ 103.709245214714201, 1.325410289635655 ] } },
{ "type": "Feature", "properties": { "Name": "Jurong Hill", "Description": "<center><table><tr><th colspan='2' align='center'>Jurong Hill</th></tr><tr><th>NAME</th><td>Jurong Hill</td></tr></table></center>" }, "geometry": { "type": "Point", "coordinates": [ 103.710134682057983, 1.318624649800602 ] } },
{ "type": "Feature", "properties": { "Name": "Jurong Pier", "Description": "<center><table><tr><th colspan='2' align='center'>Jurong Pier</th></tr><tr><th>NAME</th><td>Jurong Pier</td></tr></table></center>" }, "geometry": { "type": "Point", "coordinates": [ 103.710398776777822, 1.313131168920921 ] } },
{ "type": "Feature", "properties": { "Name": "Gek Poh", "Description": "<center><table><tr><th colspan='2' align='center'>Gek Poh</th></tr><tr><th>NAME</th><td>Gek Poh</td></tr></table></center>" }, "geometry": { "type": "Point", "coordinates": [ 103.698116032594939, 1.348346190093054 ] } },
{ "type": "Feature", "properties": { "Name": "Tawas", "Description": "<center><table><tr><th colspan='2' align='center'>Tawas</th></tr><tr><th>NAME</th><td>Tawas</td></tr></table></center>" }, "geometry": { "type": "Point", "coordinates": [ 103.69188973657316, 1.350658112905594 ] } },
{ "type": "Feature", "properties": { "Name": "Nanyang Gateway", "Description": "<center><table><tr><th colspan='2' align='center'>Nanyang Gateway</th></tr><tr><th>NAME</th><td>Nanyang Gateway</td></tr></table></center>" }, "geometry": { "type": "Point", "coordinates": [ 103.686606816304106, 1.353688748562196 ] } },
{ "type": "Feature", "properties": { "Name": "Nanyang Crescent", "Description": "<center><table><tr><th colspan='2' align='center'>Nanyang Crescent</th></tr><tr><th>NAME</th><td>Nanyang Crescent</td></tr></table></center>" }, "geometry": { "type": "Point", "coordinates": [ 103.680804401806753, 1.348406318852503 ] } },
{ "type": "Feature", "properties": { "Name": "Peng Kang Hill", "Description": "<center><table><tr><th colspan='2' align='center'>Peng Kang Hill</th></tr><tr><th>NAME</th><td>Peng Kang Hill</td></tr></table></center>" }, "geometry": { "type": "Point", "coordinates": [ 103.678564295618443, 1.343205553367047 ] } },
{ "type": "Feature", "properties": { "Name": "HarbourFront", "Description": "<center><table><tr><th colspan='2' align='center'>HarbourFront</th></tr><tr><th>NAME</th><td>HarbourFront</td></tr></table></center>" }, "geometry": { "type": "Point", "coordinates": [ 103.821530157094998, 1.26538938374901 ] } },
{ "type": "Feature", "properties": { "Name": "Outram Park", "Description": "<center><table><tr><th colspan='2' align='center'>Outram Park</th></tr><tr><th>NAME</th><td>Outram Park</td></tr></table></center>" }, "geometry": { "type": "Point", "coordinates": [ 103.839439862424996, 1.27972059383553 ] } },
{ "type": "Feature", "properties": { "Name": "Chinatown", "Description": "<center><table><tr><th colspan='2' align='center'>Chinatown</th></tr><tr><th>NAME</th><td>Chinatown</td></tr></table></center>" }, "geometry": { "type": "Point", "coordinates": [ 103.843426681862994, 1.28435959278583 ] } },
{ "type": "Feature", "properties": { "Name": "Clarke Quay", "Description": "<center><table><tr><th colspan='2' align='center'>Clarke Quay</th></tr><tr><th>NAME</th><td>Clarke Quay</td></tr></table></center>" }, "geometry": { "type": "Point", "coordinates": [ 103.846555209694003, 1.28838602407588 ] } },
{ "type": "Feature", "properties": { "Name": "Dhoby Ghaut", "Description": "<center><table><tr><th colspan='2' align='center'>Dhoby Ghaut</th></tr><tr><th>NAME</th><td>Dhoby Ghaut</td></tr></table></center>" }, "geometry": { "type": "Point", "coordinates": [ 103.845488542541005, 1.29970458121203 ] } },
{ "type": "Feature", "properties": { "Name": "Little India", "Description": "<center><table><tr><th colspan='2' align='center'>Little India</th></tr><tr><th>NAME</th><td>Little India</td></tr></table></center>" }, "geometry": { "type": "Point", "coordinates": [ 103.849647059738004, 1.30680019696174 ] } },
{ "type": "Feature", "properties": { "Name": "Farrer Park", "Description": "<center><table><tr><th colspan='2' align='center'>Farrer Park</th></tr><tr><th>NAME</th><td>Farrer Park</td></tr></table></center>" }, "geometry": { "type": "Point", "coordinates": [ 103.853477716509005, 1.31190557325774 ] } },
{ "type": "Feature", "properties": { "Name": "Boon Keng", "Description": "<center><table><tr><th colspan='2' align='center'>Boon Keng</th></tr><tr><th>NAME</th><td>Boon Keng</td></tr></table></center>" }, "geometry": { "type": "Point", "coordinates": [ 103.861569454155998, 1.31933570922514 ] } },
{ "type": "Feature", "properties": { "Name": "Potong Pasir", "Description": "<center><table><tr><th colspan='2' align='center'>Potong Pasir</th></tr><tr><th>NAME</th><td>Potong Pasir</td></tr></table></center>" }, "geometry": { "type": "Point", "coordinates": [ 103.869055656781995, 1.33137949021368 ] } },
{ "type": "Feature", "properties": { "Name": "Woodleigh", "Description": "<center><table><tr><th colspan='2' align='center'>Woodleigh</th></tr><tr><th>NAME</th><td>Woodleigh</td></tr></table></center>" }, "geometry": { "type": "Point", "coordinates": [ 103.870818309149996, 1.33919004519388 ] } },
{ "type": "Feature", "properties": { "Name": "Serangoon", "Description": "<center><table><tr><th colspan='2' align='center'>Serangoon</th></tr><tr><th>NAME</th><td>Serangoon</td></tr></table></center>" }, "geometry": { "type": "Point", "coordinates": [ 103.873574849883994, 1.34970788089564 ] } },
{ "type": "Feature", "properties": { "Name": "Kovan", "Description": "<center><table><tr><th colspan='2' align='center'>Kovan</th></tr><tr><th>NAME</th><td>Kovan</td></tr></table></center>" }, "geometry": { "type": "Point", "coordinates": [ 103.885064856352997, 1.36017917065237 ] } },
{ "type": "Feature", "properties": { "Name": "Hougang", "Description": "<center><table><tr><th colspan='2' align='center'>Hougang</th></tr><tr><th>NAME</th><td>Hougang</td></tr></table></center>" }, "geometry": { "type": "Point", "coordinates": [ 103.892380513028996, 1.37129226620797 ] } },
{ "type": "Feature", "properties": { "Name": "Buangkok", "Description": "<center><table><tr><th colspan='2' align='center'>Buangkok</th></tr><tr><th>NAME</th><td>Buangkok</td></tr></table></center>" }, "geometry": { "type": "Point", "coordinates": [ 103.893122569705994, 1.38287001971672 ] } },
{ "type": "Feature", "properties": { "Name": "Sengkang", "Description": "<center><table><tr><th colspan='2' align='center'>Sengkang</th></tr><tr><th>NAME</th><td>Sengkang</td></tr></table></center>" }, "geometry": { "type": "Point", "coordinates": [ 103.895484694279006, 1.39169462601522 ] } },
{ "type": "Feature", "properties": { "Name": "Punggol", "Description": "<center><table><tr><th colspan='2' align='center'>Punggol</th></tr><tr><th>NAME</th><td>Punggol</td></tr></table></center>" }, "geometry": { "type": "Point", "coordinates": [ 103.902072622228999, 1.40454653668991 ] } },
{ "type": "Feature", "properties": { "Name": "Punggol Coast", "Description": "<center><table><tr><th colspan='2' align='center'>Punggol Coast</th></tr><tr><th>NAME</th><td>Punggol Coast</td></tr></table></center>" }, "geometry": { "type": "Point", "coordinates": [ 103.910166388177004, 1.41492733388605 ] } },
{ "type": "Feature", "properties": { "Name": "Jurong East", "Description": "<center><table><tr><th colspan='2' align='center'>Jurong East</th></tr><tr><th>NAME</th><td>Jurong East</td></tr></table></center>" }, "geometry": { "type": "Point", "coordinates": [ 103.742286332402998, 1.33315281585758 ] } },
{ "type": "Feature", "properties": { "Name": "Bukit Batok", "Description": "<center><table><tr><th colspan='2' align='center'>Bukit Batok</th></tr><tr><th>NAME</th><td>Bukit Batok</td></tr></table></center>" }, "geometry": { "type": "Point", "coordinates": [ 103.749566478309006, 1.34903331201636 ] } },
{ "type": "Feature", "properties": { "Name": "Bukit Gombak", "Description": "<center><table><tr><th colspan='2' align='center'>Bukit Gombak</th></tr><tr><th>NAME</th><td>Bukit Gombak</td></tr></table></center>" }, "geometry": { "type": "Point", "coordinates": [ 103.751790910733007, 1.35861159094192 ] } },
{ "type": "Feature", "properties": { "Name": "Brickland", "Description": "<center><table><tr><th colspan='2' align='center'>Brickland</th></tr><tr><th>NAME</th><td>Brickland</td></tr></table></center>" }, "geometry": { "type": "Point", "coordinates": [ 103.746989, 1.370728 ] } },
{ "type": "Feature", "properties": { "Name": "Choa Chu Kang", "Description": "<center><table><tr><th colspan='2' align='center'>Choa Chu Kang</th></tr><tr><th>NAME</th><td>Choa Chu Kang</td></tr></table></center>" }, "geometry": { "type": "Point", "coordinates": [ 103.744370779755997, 1.38536316540225 ] } },
{ "type": "Feature", "properties": { "Name": "Yew Tee", "Description": "<center><table><tr><th colspan='2' align='center'>Yew Tee</th></tr><tr><th>NAME</th><td>Yew Tee</td></tr></table></center>" }, "geometry": { "type": "Point", "coordinates": [ 103.747405150236006, 1.39753506936297 ] } },
{ "type": "Feature", "properties": { "Name": "Sungei Kadut", "Description": "<center><table><tr><th colspan='2' align='center'>Sungei Kadut</th></tr><tr><th>NAME</th><td>Sungei Kadut</td></tr></table></center>" }, "geometry": { "type": "Point", "coordinates": [ 103.748749, 1.413404 ] } },
{ "type": "Feature", "properties": { "Name": "Kranji", "Description": "<center><table><tr><th colspan='2' align='center'>Kranji</th></tr><tr><th>NAME</th><td>Kranji</td></tr></table></center>" }, "geometry": { "type": "Point", "coordinates": [ 103.762137459496998, 1.42508698073648 ] } },
{ "type": "Feature", "properties": { "Name": "Marsiling", "Description": "<center><table><tr><th colspan='2' align='center'>Marsiling</th></tr><tr><th>NAME</th><td>Marsiling</td></tr></table></center>" }, "geometry": { "type": "Point", "coordinates": [ 103.774074641403004, 1.43252114855026 ] } },
{ "type": "Feature", "properties": { "Name": "Woodlands", "Description": "<center><table><tr><th colspan='2' align='center'>Woodlands</th></tr><tr><th>NAME</th><td>Woodlands</td></tr></table></center>" }, "geometry": { "type": "Point", "coordinates": [ 103.786066799253007, 1.43681962961519 ] } },
{ "type": "Feature", "properties": { "Name": "Admiralty", "Description": "<center><table><tr><th colspan='2' align='center'>Admiralty</th></tr><tr><th>NAME</th><td>Admiralty</td></tr></table></center>" }, "geometry": { "type": "Point", "coordinates": [ 103.800990519771005, 1.44058856161847 ] } },
{ "type": "Feature", "properties": { "Name": "Sembawang", "Description": "<center><table><tr><th colspan='2' align='center'>Sembawang</th></tr><tr><th>NAME</th><td>Sembawang</td></tr></table></center>" }, "geometry": { "type": "Point", "coordinates": [ 103.820046140211005, 1.44905082158502 ] } },
{ "type": "Feature", "properties": { "Name": "Canberra", "Description": "<center><table><tr><th colspan='2' align='center'>Canberra</th></tr><tr><th>NAME</th><td>Canberra</td></tr></table></center>" }, "geometry": { "type": "Point", "coordinates": [ 103.829702590959002, 1.44307664075699 ] } },
{ "type": "Feature", "properties": { "Name": "Yishun", "Description": "<center><table><tr><th colspan='2' align='center'>Yishun</th></tr><tr><th>NAME</th><td>Yishun</td></tr></table></center>" }, "geometry": { "type": "Point", "coordinates": [ 103.835005047246, 1.42944308477331 ] } },
{ "type": "Feature", "properties": { "Name": "Khatib", "Description": "<center><table><tr><th colspan='2' align='center'>Khatib</th></tr><tr><th>NAME</th><td>Khatib</td></tr></table></center>" }, "geometry": { "type": "Point", "coordinates": [ 103.832979908243004, 1.41738337009565 ] } },
{ "type": "Feature", "properties": { "Name": "Yio Chu Kang", "Description": "<center><table><tr><th colspan='2' align='center'>Yio Chu Kang</th></tr><tr><th>NAME</th><td>Yio Chu Kang</td></tr></table></center>" }, "geometry": { "type": "Point", "coordinates": [ 103.844947271180004, 1.38175587099132 ] } },
{ "type": "Feature", "properties": { "Name": "Ang Mo Kio", "Description": "<center><table><tr><th colspan='2' align='center'>Ang Mo Kio</th></tr><tr><th>NAME</th><td>Ang Mo Kio</td></tr></table></center>" }, "geometry": { "type": "Point", "coordinates": [ 103.849558092319995, 1.36993284962262 ] } },
{ "type": "Feature", "properties": { "Name": "Bishan", "Description": "<center><table><tr><th colspan='2' align='center'>Bishan</th></tr><tr><th>NAME</th><td>Bishan</td></tr></table></center>" }, "geometry": { "type": "Point", "coordinates": [ 103.848143964542004, 1.35083898784737 ] } },
{ "type": "Feature", "properties": { "Name": "Braddell", "Description": "<center><table><tr><th colspan='2' align='center'>Braddell</th></tr><tr><th>NAME</th><td>Braddell</td></tr></table></center>" }, "geometry": { "type": "Point", "coordinates": [ 103.846799083147999, 1.3404690010277 ] } },
{ "type": "Feature", "properties": { "Name": "Toa Payoh", "Description": "<center><table><tr><th colspan='2' align='center'>Toa Payoh</th></tr><tr><th>NAME</th><td>Toa Payoh</td></tr></table></center>" }, "geometry": { "type": "Point", "coordinates": [ 103.847502198048005, 1.33262928096888 ] } },
{ "type": "Feature", "properties": { "Name": "Novena", "Description": "<center><table><tr><th colspan='2' align='center'>Novena</th></tr><tr><th>NAME</th><td>Novena</td></tr></table></center>" }, "geometry": { "type": "Point", "coordinates": [ 103.843825618747999, 1.32044079120154 ] } },
{ "type": "Feature", "properties": { "Name": "Newton", "Description": "<center><table><tr><th colspan='2' align='center'>Newton</th></tr><tr><th>NAME</th><td>Newton</td></tr></table></center>" }, "geometry": { "type": "Point", "coordinates": [ 103.837984594020995, 1.3123189224097 ] } },
{ "type": "Feature", "properties": { "Name": "Orchard", "Description": "<center><table><tr><th colspan='2' align='center'>Orchard</th></tr><tr><th>NAME</th><td>Orchard</td></tr></table></center>" }, "geometry": { "type": "Point", "coordinates": [ 103.832245244375002, 1.30398013681715 ] } },
{ "type": "Feature", "properties": { "Name": "Somerset", "Description": "<center><table><tr><th colspan='2' align='center'>Somerset</th></tr><tr><th>NAME</th><td>Somerset</td></tr></table></center>" }, "geometry": { "type": "Point", "coordinates": [ 103.839085753123996, 1.30026416739006 ] } },
{ "type": "Feature", "properties": { "Name": "Dhoby Ghaut", "Description": "<center><table><tr><th colspan='2' align='center'>Dhoby Ghaut</th></tr><tr><th>NAME</th><td>Dhoby Ghaut</td></tr></table></center>" }, "geometry": { "type": "Point", "coordinates": [ 103.846113677950996, 1.29870132536119 ] } },
{ "type": "Feature", "properties": { "Name": "City Hall", "Description": "<center><table><tr><th colspan='2' align='center'>City Hall</th></tr><tr><th>NAME</th><td>City Hall</td></tr></table></center>" }, "geometry": { "type": "Point", "coordinates": [ 103.852585580365997, 1.29293672227779 ] } },
{ "type": "Feature", "properties": { "Name": "Raffles Place", "Description": "<center><table><tr><th colspan='2' align='center'>Raffles Place</th></tr><tr><th>NAME</th><td>Raffles Place</td></tr></table></center>" }, "geometry": { "type": "Point", "coordinates": [ 103.851461712342001, 1.28412561043658 ] } },
{ "type": "Feature", "properties": { "Name": "Marina Bay", "Description": "<center><table><tr><th colspan='2' align='center'>Marina Bay</th></tr><tr><th>NAME</th><td>Marina Bay</td></tr></table></center>" }, "geometry": { "type": "Point", "coordinates": [ 103.854595522262997, 1.276410298755 ] } },
{ "type": "Feature", "properties": { "Name": "Marina South Pier", "Description": "<center><table><tr><th colspan='2' align='center'>Marina South Pier</th></tr><tr><th>NAME</th><td>Marina South Pier</td></tr></table></center>" }, "geometry": { "type": "Point", "coordinates": [ 103.862447515735994, 1.27102703612006 ] } },
{ "type": "Feature", "properties": { "Name": "Cove", "Description": "<center><table><tr><th colspan='2' align='center'>Cove</th></tr><tr><th>NAME</th><td>Cove</td></tr></table></center>" }, "geometry": { "type": "Point", "coordinates": [ 103.905961941214002, 1.39928198837342 ] } },
{ "type": "Feature", "properties": { "Name": "Meridian", "Description": "<center><table><tr><th colspan='2' align='center'>Meridian</th></tr><tr><th>NAME</th><td>Meridian</td></tr></table></center>" }, "geometry": { "type": "Point", "coordinates": [ 103.908950224489004, 1.3969120498774 ] } },
{ "type": "Feature", "properties": { "Name": "Coral Edge", "Description": "<center><table><tr><th colspan='2' align='center'>Coral Edge</th></tr><tr><th>NAME</th><td>Coral Edge</td></tr></table></center>" }, "geometry": { "type": "Point", "coordinates": [ 103.912580845514995, 1.39390922863313 ] } },
{ "type": "Feature", "properties": { "Name": "Riviera", "Description": "<center><table><tr><th colspan='2' align='center'>Riviera</th></tr><tr><th>NAME</th><td>Riviera</td></tr></table></center>" }, "geometry": { "type": "Point", "coordinates": [ 103.916169381157005, 1.39451978540251 ] } },
{ "type": "Feature", "properties": { "Name": "Kadaloor", "Description": "<center><table><tr><th colspan='2' align='center'>Kadaloor</th></tr><tr><th>NAME</th><td>Kadaloor</td></tr></table></center>" }, "geometry": { "type": "Point", "coordinates": [ 103.916574974233995, 1.39950910636258 ] } },
{ "type": "Feature", "properties": { "Name": "Oasis", "Description": "<center><table><tr><th colspan='2' align='center'>Oasis</th></tr><tr><th>NAME</th><td>Oasis</td></tr></table></center>" }, "geometry": { "type": "Point", "coordinates": [ 103.912727352412006, 1.40228667971123 ] } },
{ "type": "Feature", "properties": { "Name": "Damai", "Description": "<center><table><tr><th colspan='2' align='center'>Damai</th></tr><tr><th>NAME</th><td>Damai</td></tr></table></center>" }, "geometry": { "type": "Point", "coordinates": [ 103.908603542565999, 1.40523483636957 ] } },
{ "type": "Feature", "properties": { "Name": "Punggol", "Description": "<center><table><tr><th colspan='2' align='center'>Punggol</th></tr><tr><th>NAME</th><td>Punggol</td></tr></table></center>" }, "geometry": { "type": "Point", "coordinates": [ 103.902411911914996, 1.40519470149606 ] } },
{ "type": "Feature", "properties": { "Name": "Sam Kee", "Description": "<center><table><tr><th colspan='2' align='center'>Sam Kee</th></tr><tr><th>NAME</th><td>Sam Kee</td></tr></table></center>" }, "geometry": { "type": "Point", "coordinates": [ 103.904831550607994, 1.40961268528804 ] } },
{ "type": "Feature", "properties": { "Name": "Teck Lee", "Description": "<center><table><tr><th colspan='2' align='center'>Teck Lee</th></tr><tr><th>NAME</th><td>Teck Lee</td></tr></table></center>" }, "geometry": { "type": "Point", "coordinates": [ 103.906577622767998, 1.4127708937463 ] } },
{ "type": "Feature", "properties": { "Name": "Punggol Point", "Description": "<center><table><tr><th colspan='2' align='center'>Punggol Point</th></tr><tr><th>NAME</th><td>Punggol Point</td></tr></table></center>" }, "geometry": { "type": "Point", "coordinates": [ 103.906650789313005, 1.41684852031206 ] } },
{ "type": "Feature", "properties": { "Name": "Samudera", "Description": "<center><table><tr><th colspan='2' align='center'>Samudera</th></tr><tr><th>NAME</th><td>Samudera</td></tr></table></center>" }, "geometry": { "type": "Point", "coordinates": [ 103.902156317163005, 1.41590172160383 ] } },
{ "type": "Feature", "properties": { "Name": "Nibong", "Description": "<center><table><tr><th colspan='2' align='center'>Nibong</th></tr><tr><th>NAME</th><td>Nibong</td></tr></table></center>" }, "geometry": { "type": "Point", "coordinates": [ 103.900339452054993, 1.41185447744238 ] } },
{ "type": "Feature", "properties": { "Name": "Sumang", "Description": "<center><table><tr><th colspan='2' align='center'>Sumang</th></tr><tr><th>NAME</th><td>Sumang</td></tr></table></center>" }, "geometry": { "type": "Point", "coordinates": [ 103.898558450395001, 1.40845241943079 ] } },
{ "type": "Feature", "properties": { "Name": "Soo Teck", "Description": "<center><table><tr><th colspan='2' align='center'>Soo Teck</th></tr><tr><th>NAME</th><td>Soo Teck</td></tr></table></center>" }, "geometry": { "type": "Point", "coordinates": [ 103.897290522033003, 1.40532331860455 ] } },
{ "type": "Feature", "properties": { "Name": "Compassvale", "Description": "<center><table><tr><th colspan='2' align='center'>Compassvale</th></tr><tr><th>NAME</th><td>Compassvale</td></tr></table></center>" }, "geometry": { "type": "Point", "coordinates": [ 103.900492450944, 1.39449304450373 ] } },
{ "type": "Feature", "properties": { "Name": "Rumbia", "Description": "<center><table><tr><th colspan='2' align='center'>Rumbia</th></tr><tr><th>NAME</th><td>Rumbia</td></tr></table></center>" }, "geometry": { "type": "Point", "coordinates": [ 103.905973593409996, 1.39146849534132 ] } },
{ "type": "Feature", "properties": { "Name": "Bakau", "Description": "<center><table><tr><th colspan='2' align='center'>Bakau</th></tr><tr><th>NAME</th><td>Bakau</td></tr></table></center>" }, "geometry": { "type": "Point", "coordinates": [ 103.905415300171001, 1.38799431054768 ] } },
{ "type": "Feature", "properties": { "Name": "Kangkar", "Description": "<center><table><tr><th colspan='2' align='center'>Kangkar</th></tr><tr><th>NAME</th><td>Kangkar</td></tr></table></center>" }, "geometry": { "type": "Point", "coordinates": [ 103.902225370439993, 1.38395911688913 ] } },
{ "type": "Feature", "properties": { "Name": "Ranggung", "Description": "<center><table><tr><th colspan='2' align='center'>Ranggung</th></tr><tr><th>NAME</th><td>Ranggung</td></tr></table></center>" }, "geometry": { "type": "Point", "coordinates": [ 103.897194667804001, 1.38423355918277 ] } },
{ "type": "Feature", "properties": { "Name": "Sengkang", "Description": "<center><table><tr><th colspan='2' align='center'>Sengkang</th></tr><tr><th>NAME</th><td>Sengkang</td></tr></table></center>" }, "geometry": { "type": "Point", "coordinates": [ 103.895442583336006, 1.39160936379906 ] } },
{ "type": "Feature", "properties": { "Name": "Cheng Lim", "Description": "<center><table><tr><th colspan='2' align='center'>Cheng Lim</th></tr><tr><th>NAME</th><td>Cheng Lim</td></tr></table></center>" }, "geometry": { "type": "Point", "coordinates": [ 103.893797181731003, 1.39627763344324 ] } },
{ "type": "Feature", "properties": { "Name": "Farmway", "Description": "<center><table><tr><th colspan='2' align='center'>Farmway</th></tr><tr><th>NAME</th><td>Farmway</td></tr></table></center>" }, "geometry": { "type": "Point", "coordinates": [ 103.889304824196003, 1.39717019591821 ] } },
{ "type": "Feature", "properties": { "Name": "Kupang", "Description": "<center><table><tr><th colspan='2' align='center'>Kupang</th></tr><tr><th>NAME</th><td>Kupang</td></tr></table></center>" }, "geometry": { "type": "Point", "coordinates": [ 103.881256222255004, 1.39821283031379 ] } },
{ "type": "Feature", "properties": { "Name": "Thanggam", "Description": "<center><table><tr><th colspan='2' align='center'>Thanggam</th></tr><tr><th>NAME</th><td>Thanggam</td></tr></table></center>" }, "geometry": { "type": "Point", "coordinates": [ 103.875635154728997, 1.39731815581938 ] } },
{ "type": "Feature", "properties": { "Name": "Fernvale", "Description": "<center><table><tr><th colspan='2' align='center'>Fernvale</th></tr><tr><th>NAME</th><td>Fernvale</td></tr></table></center>" }, "geometry": { "type": "Point", "coordinates": [ 103.876308625519997, 1.39188589234766 ] } },
{ "type": "Feature", "properties": { "Name": "Layar", "Description": "<center><table><tr><th colspan='2' align='center'>Layar</th></tr><tr><th>NAME</th><td>Layar</td></tr></table></center>" }, "geometry": { "type": "Point", "coordinates": [ 103.880029600545996, 1.39207983659997 ] } },
{ "type": "Feature", "properties": { "Name": "Tongkang", "Description": "<center><table><tr><th colspan='2' align='center'>Tongkang</th></tr><tr><th>NAME</th><td>Tongkang</td></tr></table></center>" }, "geometry": { "type": "Point", "coordinates": [ 103.885844150116, 1.38934794658941 ] } },
{ "type": "Feature", "properties": { "Name": "Renjong", "Description": "<center><table><tr><th colspan='2' align='center'>Renjong</th></tr><tr><th>NAME</th><td>Renjong</td></tr></table></center>" }, "geometry": { "type": "Point", "coordinates": [ 103.890621316080001, 1.38670058991904 ] } },
{ "type": "Feature", "properties": { "Name": "Woodlands North", "Description": "<center><table><tr><th colspan='2' align='center'>Woodlands North</th></tr><tr><th>NAME</th><td>Woodlands North</td></tr></table></center>" }, "geometry": { "type": "Point", "coordinates": [ 103.785692682440995, 1.44829245259621 ] } },
{ "type": "Feature", "properties": { "Name": "Woodlands", "Description": "<center><table><tr><th colspan='2' align='center'>Woodlands</th></tr><tr><th>NAME</th><td>Woodlands</td></tr></table></center>" }, "geometry": { "type": "Point", "coordinates": [ 103.787938777172997, 1.43605761708128 ] } },
{ "type": "Feature", "properties": { "Name": "Woodlands South", "Description": "<center><table><tr><th colspan='2' align='center'>Woodlands South</th></tr><tr><th>NAME</th><td>Woodlands South</td></tr></table></center>" }, "geometry": { "type": "Point", "coordinates": [ 103.793264322210007, 1.42739605281442 ] } },
{ "type": "Feature", "properties": { "Name": "Springleaf", "Description": "<center><table><tr><th colspan='2' align='center'>Springleaf</th></tr><tr><th>NAME</th><td>Springleaf</td></tr></table></center>" }, "geometry": { "type": "Point", "coordinates": [ 103.817856949947, 1.39758106126824 ] } },
{ "type": "Feature", "properties": { "Name": "Tagore", "Description": "<center><table><tr><th colspan='2' align='center'>Tagore</th></tr><tr><th>NAME</th><td>Tagore</td></tr></table></center>" }, "geometry": { "type": "Point", "coordinates": [ 103.8266128, 1.3903418 ] } },
{ "type": "Feature", "properties": { "Name": "Lentor", "Description": "<center><table><tr><th colspan='2' align='center'>Lentor</th></tr><tr><th>NAME</th><td>Lentor</td></tr></table></center>" }, "geometry": { "type": "Point", "coordinates": [ 103.835743809668998, 1.38550657972169 ] } },
{ "type": "Feature", "properties": { "Name": "Mayflower", "Description": "<center><table><tr><th colspan='2' align='center'>Mayflower</th></tr><tr><th>NAME</th><td>Mayflower</td></tr></table></center>" }, "geometry": { "type": "Point", "coordinates": [ 103.836567766944995, 1.37146318831015 ] } },
{ "type": "Feature", "properties": { "Name": "Bright Hill", "Description": "<center><table><tr><th colspan='2' align='center'>Bright Hill</th></tr><tr><th>NAME</th><td>Bright Hill</td></tr></table></center>" }, "geometry": { "type": "Point", "coordinates": [ 103.832893619992007, 1.36328318545185 ] } },
{ "type": "Feature", "properties": { "Name": "Upper Thomson", "Description": "<center><table><tr><th colspan='2' align='center'>Upper Thomson</th></tr><tr><th>NAME</th><td>Upper Thomson</td></tr></table></center>" }, "geometry": { "type": "Point", "coordinates": [ 103.832898468503998, 1.35441643365401 ] } },
{ "type": "Feature", "properties": { "Name": "Caldecott", "Description": "<center><table><tr><th colspan='2' align='center'>Caldecott</th></tr><tr><th>NAME</th><td>Caldecott</td></tr></table></center>" }, "geometry": { "type": "Point", "coordinates": [ 103.840161782075, 1.33724561271722 ] } },
{ "type": "Feature", "properties": { "Name": "Mount Pleasant", "Description": "<center><table><tr><th colspan='2' align='center'>Mount Pleasant</th></tr><tr><th>NAME</th><td>Mount Pleasant</td></tr></table></center>" }, "geometry": { "type": "Point", "coordinates": [ 103.835188581989996, 1.32856455460666 ] } },
{ "type": "Feature", "properties": { "Name": "Stevens", "Description": "<center><table><tr><th colspan='2' align='center'>Stevens</th></tr><tr><th>NAME</th><td>Stevens</td></tr></table></center>" }, "geometry": { "type": "Point", "coordinates": [ 103.825566965234003, 1.31933437435349 ] } },
{ "type": "Feature", "properties": { "Name": "Napier", "Description": "<center><table><tr><th colspan='2' align='center'>Napier</th></tr><tr><th>NAME</th><td>Napier</td></tr></table></center>" }, "geometry": { "type": "Point", "coordinates": [ 103.818956796815002, 1.30678223364785 ] } },
{ "type": "Feature", "properties": { "Name": "Orchard Boulevard", "Description": "<center><table><tr><th colspan='2' align='center'>Orchard Boulevard</th></tr><tr><th>NAME</th><td>Orchard Boulevard</td></tr></table></center>" }, "geometry": { "type": "Point", "coordinates": [ 103.823868523249004, 1.30242224836722 ] } },
{ "type": "Feature", "properties": { "Name": "Orchard", "Description": "<center><table><tr><th colspan='2' align='center'>Orchard</th></tr><tr><th>NAME</th><td>Orchard</td></tr></table></center>" }, "geometry": { "type": "Point", "coordinates": [ 103.831375000067993, 1.30304426265194 ] } },
{ "type": "Feature", "properties": { "Name": "Great World", "Description": "<center><table><tr><th colspan='2' align='center'>Great World</th></tr><tr><th>NAME</th><td>Great World</td></tr></table></center>" }, "geometry": { "type": "Point", "coordinates": [ 103.833720837730993, 1.29394816169384 ] } },
{ "type": "Feature", "properties": { "Name": "Havelock", "Description": "<center><table><tr><th colspan='2' align='center'>Havelock</th></tr><tr><th>NAME</th><td>Havelock</td></tr></table></center>" }, "geometry": { "type": "Point", "coordinates": [ 103.833585838226, 1.28850523975311 ] } },
{ "type": "Feature", "properties": { "Name": "Outram Park", "Description": "<center><table><tr><th colspan='2' align='center'>Outram Park</th></tr><tr><th>NAME</th><td>Outram Park</td></tr></table></center>" }, "geometry": { "type": "Point", "coordinates": [ 103.839137557748998, 1.28132964411173 ] } },
{ "type": "Feature", "properties": { "Name": "Maxwell", "Description": "<center><table><tr><th colspan='2' align='center'>Maxwell</th></tr><tr><th>NAME</th><td>Maxwell</td></tr></table></center>" }, "geometry": { "type": "Point", "coordinates": [ 103.843883670633005, 1.28053329842878 ] } },
{ "type": "Feature", "properties": { "Name": "Shenton Way", "Description": "<center><table><tr><th colspan='2' align='center'>Shenton Way</th></tr><tr><th>NAME</th><td>Shenton Way</td></tr></table></center>" }, "geometry": { "type": "Point", "coordinates": [ 103.850367596067002, 1.2777168283425 ] } },
{ "type": "Feature", "properties": { "Name": "Marina Bay", "Description": "<center><table><tr><th colspan='2' align='center'>Marina Bay</th></tr><tr><th>NAME</th><td>Marina Bay</td></tr></table></center>" }, "geometry": { "type": "Point", "coordinates": [ 103.855309167927999, 1.27474173226842 ] } },
{ "type": "Feature", "properties": { "Name": "Marina South", "Description": "<center><table><tr><th colspan='2' align='center'>Marina South</th></tr><tr><th>NAME</th><td>Marina South</td></tr></table></center>" }, "geometry": { "type": "Point", "coordinates": [ 103.863574321727995, 1.27455475919137 ] } },
{ "type": "Feature", "properties": { "Name": "Gardens by the Bay", "Description": "<center><table><tr><th colspan='2' align='center'>Gardens by the Bay</th></tr><tr><th>NAME</th><td>Gardens by the Bay</td></tr></table></center>" }, "geometry": { "type": "Point", "coordinates": [ 103.867454664421004, 1.27848725876303 ] } },
{ "type": "Feature", "properties": { "Name": "Founders' Memorial", "Description": "<center><table><tr><th colspan='2' align='center'>Founders' Memorial</th></tr><tr><th>NAME</th><td>Founders' Memorial</td></tr></table></center>" }, "geometry": { "type": "Point", "coordinates": [ 103.868934190809156, 1.290973560213216 ] } },
{ "type": "Feature", "properties": { "Name": "Tanjong Rhu", "Description": "<center><table><tr><th colspan='2' align='center'>Tanjong Rhu</th></tr><tr><th>NAME</th><td>Tanjong Rhu</td></tr></table></center>" }, "geometry": { "type": "Point", "coordinates": [ 103.873453254620998, 1.29726507940646 ] } },
{ "type": "Feature", "properties": { "Name": "Katong Park", "Description": "<center><table><tr><th colspan='2' align='center'>Katong Park</th></tr><tr><th>NAME</th><td>Katong Park</td></tr></table></center>" }, "geometry": { "type": "Point", "coordinates": [ 103.886178949924997, 1.29783147778951 ] } },
{ "type": "Feature", "properties": { "Name": "Tanjong Katong", "Description": "<center><table><tr><th colspan='2' align='center'>Tanjong Katong</th></tr><tr><th>NAME</th><td>Tanjong Katong</td></tr></table></center>" }, "geometry": { "type": "Point", "coordinates": [ 103.897368742078001, 1.29931925769899 ] } },
{ "type": "Feature", "properties": { "Name": "Marine Parade", "Description": "<center><table><tr><th colspan='2' align='center'>Marine Parade</th></tr><tr><th>NAME</th><td>Marine Parade</td></tr></table></center>" }, "geometry": { "type": "Point", "coordinates": [ 103.904983086811995, 1.30261163483383 ] } },
{ "type": "Feature", "properties": { "Name": "Marine Terrace", "Description": "<center><table><tr><th colspan='2' align='center'>Marine Terrace</th></tr><tr><th>NAME</th><td>Marine Terrace</td></tr></table></center>" }, "geometry": { "type": "Point", "coordinates": [ 103.915106700500004, 1.30666510344814 ] } },
{ "type": "Feature", "properties": { "Name": "Siglap", "Description": "<center><table><tr><th colspan='2' align='center'>Siglap</th></tr><tr><th>NAME</th><td>Siglap</td></tr></table></center>" }, "geometry": { "type": "Point", "coordinates": [ 103.930025826708004, 1.31000869432289 ] } },
{ "type": "Feature", "properties": { "Name": "Bayshore", "Description": "<center><table><tr><th colspan='2' align='center'>Bayshore</th></tr><tr><th>NAME</th><td>Bayshore</td></tr></table></center>" }, "geometry": { "type": "Point", "coordinates": [ 103.942309776767004, 1.31312248291264 ] } },
{ "type": "Feature", "properties": { "Name": "Bedok South", "Description": "<center><table><tr><th colspan='2' align='center'>Bedok South</th></tr><tr><th>NAME</th><td>Bedok South</td></tr></table></center>" }, "geometry": { "type": "Point", "coordinates": [ 103.94931120983, 1.31668400658419 ] } },
{ "type": "Feature", "properties": { "Name": "Sungei Bedok", "Description": "<center><table><tr><th colspan='2' align='center'>Sungei Bedok</th></tr><tr><th>NAME</th><td>Sungei Bedok</td></tr></table></center>" }, "geometry": { "type": "Point", "coordinates": [ 103.957183823478005, 1.32040148729112 ] } },
{ "type": "Feature", "properties": { "Name": "Changi Airport Terminal 5", "Description": "<center><table><tr><th colspan='2' align='center'>Changi Airport Terminal 5</th></tr><tr><th>NAME</th><td>Changi Airport Terminal 5</td></tr></table></center>" }, "geometry": { "type": "Point", "coordinates": [ 103.99643, 1.33473 ] } }
]
}
